[{"OBJECT_NAME":"IRIDIUM 178","OBJECT_ID":"2023-068V","EPOCH":"2026-03-09T22:29:43.646208","MEAN_MOTION":14.80237854,"ECCENTRICITY":0.00024806,"INCLINATION":86.6486,"RA_OF_ASC_NODE":66.834,"ARG_OF_PERICENTER":100.7522,"MEAN_ANOMALY":259.3979,"EPHEMERIS_TYPE":0,"CLASSIFICATION_TYPE":"U","NORAD_CAT_ID":56729,"ELEMENT_SET_NO":999,"REV_AT_EPOCH":15168,"BSTAR":8.8663606e-5,"MEAN_MOTION_DOT":7.0e-6,"MEAN_MOTION_DDOT":0},{"OBJECT_NAME":"KUIPER-00063","OBJECT_ID":"2025-134Z","EPOCH":"2026-03-09T18:14:14.102880","MEAN_MOTION":14.79988084,"ECCENTRICITY":4.939e-5,"INCLINATION":51.9013,"RA_OF_ASC_NODE":237.7873,"ARG_OF_PERICENTER":113.8346,"MEAN_ANOMALY":246.2668,"EPHEMERIS_TYPE":0,"CLASSIFICATION_TYPE":"U","NORAD_CAT_ID":64523,"ELEMENT_SET_NO":999,"REV_AT_EPOCH":4001,"BSTAR":-0.0037038389,"MEAN_MOTION_DOT":-0.00028375,"MEAN_MOTION_DDOT":0}]
